TEVEL2-2                
1 63219U 25052K   26068.64848259  .00020339  00000+0  69428-3 0  9991
2 63219  97.3987 324.7700 0004693 105.7930 254.3828 15.30343745 54855
STARLINK-35604          
1 66802U 25278M   26068.47100988  .00027058  00000+0  98870-3 0  9991
2 66802  42.9978 115.7689 0001114 265.1782  94.8942 15.27595646 15178
